[{"OBJECT_NAME":"STARLINK-3619","OBJECT_ID":"2022-017V","EPOCH":"2026-03-09T22:28:26.086656","MEAN_MOTION":15.08831006,"ECCENTRICITY":0.00011926,"INCLINATION":53.2194,"RA_OF_ASC_NODE":348.0139,"ARG_OF_PERICENTER":93.0181,"MEAN_ANOMALY":267.0947,"EPHEMERIS_TYPE":0,"CLASSIFICATION_TYPE":"U","NORAD_CAT_ID":51787,"ELEMENT_SET_NO":999,"REV_AT_EPOCH":22231,"BSTAR":-7.553327e-6,"MEAN_MOTION_DOT":-4.08e-6,"MEAN_MOTION_DDOT":0},{"OBJECT_NAME":"CZ-6A DEB","OBJECT_ID":"2024-140BZ","EPOCH":"2026-03-09T14:49:21.592992","MEAN_MOTION":14.79384468,"ECCENTRICITY":0.0146889,"INCLINATION":88.732,"RA_OF_ASC_NODE":260.453,"ARG_OF_PERICENTER":155.7611,"MEAN_ANOMALY":205.0618,"EPHEMERIS_TYPE":0,"CLASSIFICATION_TYPE":"U","NORAD_CAT_ID":60672,"ELEMENT_SET_NO":999,"REV_AT_EPOCH":8505,"BSTAR":0.0010732,"MEAN_MOTION_DOT":9.637e-5,"MEAN_MOTION_DDOT":0}]
